<?xml version="1.0" encoding="UTF-8"?>
<ndm xmlns:xsi="http://www.w3.org/2001/XMLSchema-instance" xsi:noNamespaceSchemaLocation="https://sanaregistry.org/r/ndmxml_unqualified/ndmxml-2.0.0-master-2.0.xsd">
<omm id="CCSDS_OMM_VERS" version="2.0">
<header><CREATION_DATE/><ORIGINATOR/></header><body><segment><metadata><OBJECT_NAME>ORBCOMM-X [-]</OBJECT_NAME><OBJECT_ID>1991-050C</OBJECT_ID><CENTER_NAME>EARTH</CENTER_NAME><REF_FRAME>TEME</REF_FRAME><TIME_SYSTEM>UTC</TIME_SYSTEM><MEAN_ELEMENT_THEORY>SGP4</MEAN_ELEMENT_THEORY></metadata><data><meanElements><EPOCH>2023-09-01T15:48:14.957280</EPOCH><MEAN_MOTION>14.42155917</MEAN_MOTION><ECCENTRICITY>.0003841</ECCENTRICITY><INCLINATION>98.4295</INCLINATION><RA_OF_ASC_NODE>311.0470</RA_OF_ASC_NODE><ARG_OF_PERICENTER>21.3388</ARG_OF_PERICENTER><MEAN_ANOMALY>338.7961</MEAN_ANOMALY></meanElements><tleParameters><EPHEMERIS_TYPE>0</EPHEMERIS_TYPE><CLASSIFICATION_TYPE>U</CLASSIFICATION_TYPE><NORAD_CAT_ID>21576</NORAD_CAT_ID><ELEMENT_SET_NO>999</ELEMENT_SET_NO><REV_AT_EPOCH>68774</REV_AT_EPOCH><BSTAR>.12955E-3</BSTAR><MEAN_MOTION_DOT>.383E-5</MEAN_MOTION_DOT><MEAN_MOTION_DDOT>0</MEAN_MOTION_DDOT></tleParameters></data></segment></body></omm>
<omm id="CCSDS_OMM_VERS" version="2.0">
<header><CREATION_DATE/><ORIGINATOR/></header><body><segment><metadata><OBJECT_NAME>ORBCOMM FM01 [-]</OBJECT_NAME><OBJECT_ID>1995-017A</OBJECT_ID><CENTER_NAME>EARTH</CENTER_NAME><REF_FRAME>TEME</REF_FRAME><TIME_SYSTEM>UTC</TIME_SYSTEM><MEAN_ELEMENT_THEORY>SGP4</MEAN_ELEMENT_THEORY></metadata><data><meanElements><EPOCH>2023-09-01T17:37:13.735200</EPOCH><MEAN_MOTION>14.76251039</MEAN_MOTION><ECCENTRICITY>.0007698</ECCENTRICITY><INCLINATION>69.9664</INCLINATION><RA_OF_ASC_NODE>246.2686</RA_OF_ASC_NODE><ARG_OF_PERICENTER>247.3240</ARG_OF_PERICENTER><MEAN_ANOMALY>112.7094</MEAN_ANOMALY></meanElements><tleParameters><EPHEMERIS_TYPE>0</EPHEMERIS_TYPE><CLASSIFICATION_TYPE>U</CLASSIFICATION_TYPE><NORAD_CAT_ID>23545</NORAD_CAT_ID><ELEMENT_SET_NO>999</ELEMENT_SET_NO><REV_AT_EPOCH>51552</REV_AT_EPOCH><BSTAR>.62086E-3</BSTAR><MEAN_MOTION_DOT>.4234E-4</MEAN_MOTION_DOT><MEAN_MOTION_DDOT>0</MEAN_MOTION_DDOT></tleParameters></data></segment></body></omm>
<omm id="CCSDS_OMM_VERS" version="2.0">
<header><CREATION_DATE/><ORIGINATOR/></header><body><segment><metadata><OBJECT_NAME>ORBCOMM FM02 [-]</OBJECT_NAME><OBJECT_ID>1995-017B</OBJECT_ID><CENTER_NAME>EARTH</CENTER_NAME><REF_FRAME>TEME</REF_FRAME><TIME_SYSTEM>UTC</TIME_SYSTEM><MEAN_ELEMENT_THEORY>SGP4</MEAN_ELEMENT_THEORY></metadata><data><meanElements><EPOCH>2023-09-01T18:09:35.630496</EPOCH><MEAN_MOTION>14.75666636</MEAN_MOTION><ECCENTRICITY>.0009125</ECCENTRICITY><INCLINATION>69.9683</INCLINATION><RA_OF_ASC_NODE>265.1619</RA_OF_ASC_NODE><ARG_OF_PERICENTER>238.5444</ARG_OF_PERICENTER><MEAN_ANOMALY>121.4811</MEAN_ANOMALY></meanElements><tleParameters><EPHEMERIS_TYPE>0</EPHEMERIS_TYPE><CLASSIFICATION_TYPE>U</CLASSIFICATION_TYPE><NORAD_CAT_ID>23546</NORAD_CAT_ID><ELEMENT_SET_NO>999</ELEMENT_SET_NO><REV_AT_EPOCH>51518</REV_AT_EPOCH><BSTAR>.7045E-3</BSTAR><MEAN_MOTION_DOT>.475E-4</MEAN_MOTION_DOT><MEAN_MOTION_DDOT>0</MEAN_MOTION_DDOT></tleParameters></data></segment></body></omm>
<omm id="CCSDS_OMM_VERS" version="2.0">
<header><CREATION_DATE/><ORIGINATOR/></header><body><segment><metadata><OBJECT_NAME>ORBCOMM FM08 [-]</OBJECT_NAME><OBJECT_ID>1997-084A</OBJECT_ID><CENTER_NAME>EARTH</CENTER_NAME><REF_FRAME>TEME</REF_FRAME><TIME_SYSTEM>UTC</TIME_SYSTEM><MEAN_ELEMENT_THEORY>SGP4</MEAN_ELEMENT_THEORY></metadata><data><meanElements><EPOCH>2023-09-01T17:38:52.836864</EPOCH><MEAN_MOTION>14.41158502</MEAN_MOTION><ECCENTRICITY>.0007719</ECCENTRICITY><INCLINATION>45.0147</INCLINATION><RA_OF_ASC_NODE>256.9175</RA_OF_ASC_NODE><ARG_OF_PERICENTER>203.6865</ARG_OF_PERICENTER><MEAN_ANOMALY>156.3630</MEAN_ANOMALY></meanElements><tleParameters><EPHEMERIS_TYPE>0</EPHEMERIS_TYPE><CLASSIFICATION_TYPE>U</CLASSIFICATION_TYPE><NORAD_CAT_ID>25112</NORAD_CAT_ID><ELEMENT_SET_NO>999</ELEMENT_SET_NO><REV_AT_EPOCH>34682</REV_AT_EPOCH><BSTAR>.48132E-3</BSTAR><MEAN_MOTION_DOT>.1424E-4</MEAN_MOTION_DOT><MEAN_MOTION_DDOT>0</MEAN_MOTION_DDOT></tleParameters></data></segment></body></omm>
<omm id="CCSDS_OMM_VERS" version="2.0">
<header><CREATION_DATE/><ORIGINATOR/></header><body><segment><metadata><OBJECT_NAME>ORBCOMM FM10 [-]</OBJECT_NAME><OBJECT_ID>1997-084B</OBJECT_ID><CENTER_NAME>EARTH</CENTER_NAME><REF_FRAME>TEME</REF_FRAME><TIME_SYSTEM>UTC</TIME_SYSTEM><MEAN_ELEMENT_THEORY>SGP4</MEAN_ELEMENT_THEORY></metadata><data><meanElements><EPOCH>2023-09-01T17:31:37.475040</EPOCH><MEAN_MOTION>14.41104180</MEAN_MOTION><ECCENTRICITY>.0004389</ECCENTRICITY><INCLINATION>45.0159</INCLINATION><RA_OF_ASC_NODE>258.6377</RA_OF_ASC_NODE><ARG_OF_PERICENTER>183.6816</ARG_OF_PERICENTER><MEAN_ANOMALY>176.4002</MEAN_ANOMALY></meanElements><tleParameters><EPHEMERIS_TYPE>0</EPHEMERIS_TYPE><CLASSIFICATION_TYPE>U</CLASSIFICATION_TYPE><NORAD_CAT_ID>25113</NORAD_CAT_ID><ELEMENT_SET_NO>999</ELEMENT_SET_NO><REV_AT_EPOCH>52197</REV_AT_EPOCH><BSTAR>.40993E-3</BSTAR><MEAN_MOTION_DOT>.119E-4</MEAN_MOTION_DOT><MEAN_MOTION_DDOT>0</MEAN_MOTION_DDOT></tleParameters></data></segment></body></omm>
<omm id="CCSDS_OMM_VERS" version="2.0">
<header><CREATION_DATE/><ORIGINATOR/></header><body><segment><metadata><OBJECT_NAME>ORBCOMM FM11 [+]</OBJECT_NAME><OBJECT_ID>1997-084C</OBJECT_ID><CENTER_NAME>EARTH</CENTER_NAME><REF_FRAME>TEME</REF_FRAME><TIME_SYSTEM>UTC</TIME_SYSTEM><MEAN_ELEMENT_THEORY>SGP4</MEAN_ELEMENT_THEORY></metadata><data><meanElements><EPOCH>2023-09-01T20:49:27.407712</EPOCH><MEAN_MOTION>14.40994723</MEAN_MOTION><ECCENTRICITY>.0005118</ECCENTRICITY><INCLINATION>45.0143</INCLINATION><RA_OF_ASC_NODE>257.8617</RA_OF_ASC_NODE><ARG_OF_PERICENTER>181.0865</ARG_OF_PERICENTER><MEAN_ANOMALY>178.9974</MEAN_ANOMALY></meanElements><tleParameters><EPHEMERIS_TYPE>0</EPHEMERIS_TYPE><CLASSIFICATION_TYPE>U</CLASSIFICATION_TYPE><NORAD_CAT_ID>25114</NORAD_CAT_ID><ELEMENT_SET_NO>999</ELEMENT_SET_NO><REV_AT_EPOCH>34696</REV_AT_EPOCH><BSTAR>.42381E-3</BSTAR><MEAN_MOTION_DOT>.1232E-4</MEAN_MOTION_DOT><MEAN_MOTION_DDOT>0</MEAN_MOTION_DDOT></tleParameters></data></segment></body></omm>
<omm id="CCSDS_OMM_VERS" version="2.0">
<header><CREATION_DATE/><ORIGINATOR/></header><body><segment><metadata><OBJECT_NAME>ORBCOMM FM12 [-]</OBJECT_NAME><OBJECT_ID>1997-084D</OBJECT_ID><CENTER_NAME>EARTH</CENTER_NAME><REF_FRAME>TEME</REF_FRAME><TIME_SYSTEM>UTC</TIME_SYSTEM><MEAN_ELEMENT_THEORY>SGP4</MEAN_ELEMENT_THEORY></metadata><data><meanElements><EPOCH>2023-09-01T09:47:03.982272</EPOCH><MEAN_MOTION>14.40990174</MEAN_MOTION><ECCENTRICITY>.0004229</ECCENTRICITY><INCLINATION>45.0149</INCLINATION><RA_OF_ASC_NODE>259.6897</RA_OF_ASC_NODE><ARG_OF_PERICENTER>185.4340</ARG_OF_PERICENTER><MEAN_ANOMALY>174.6464</MEAN_ANOMALY></meanElements><tleParameters><EPHEMERIS_TYPE>0</EPHEMERIS_TYPE><CLASSIFICATION_TYPE>U</CLASSIFICATION_TYPE><NORAD_CAT_ID>25115</NORAD_CAT_ID><ELEMENT_SET_NO>999</ELEMENT_SET_NO><REV_AT_EPOCH>34669</REV_AT_EPOCH><BSTAR>.41741E-3</BSTAR><MEAN_MOTION_DOT>.1211E-4</MEAN_MOTION_DOT><MEAN_MOTION_DDOT>0</MEAN_MOTION_DDOT></tleParameters></data></segment></body></omm>
<omm id="CCSDS_OMM_VERS" version="2.0">
<header><CREATION_DATE/><ORIGINATOR/></header><body><segment><metadata><OBJECT_NAME>ORBCOMM FM09 [-]</OBJECT_NAME><OBJECT_ID>1997-084E</OBJECT_ID><CENTER_NAME>EARTH</CENTER_NAME><REF_FRAME>TEME</REF_FRAME><TIME_SYSTEM>UTC</TIME_SYSTEM><MEAN_ELEMENT_THEORY>SGP4</MEAN_ELEMENT_THEORY></metadata><data><meanElements><EPOCH>2023-09-01T18:15:16.497504</EPOCH><MEAN_MOTION>14.40971082</MEAN_MOTION><ECCENTRICITY>.0004653</ECCENTRICITY><INCLINATION>45.0155</INCLINATION><RA_OF_ASC_NODE>258.6333</RA_OF_ASC_NODE><ARG_OF_PERICENTER>162.4545</ARG_OF_PERICENTER><MEAN_ANOMALY>197.6466</MEAN_ANOMALY></meanElements><tleParameters><EPHEMERIS_TYPE>0</EPHEMERIS_TYPE><CLASSIFICATION_TYPE>U</CLASSIFICATION_TYPE><NORAD_CAT_ID>25116</NORAD_CAT_ID><ELEMENT_SET_NO>999</ELEMENT_SET_NO><REV_AT_EPOCH>34695</REV_AT_EPOCH><BSTAR>.42218E-3</BSTAR><MEAN_MOTION_DOT>.1226E-4</MEAN_MOTION_DOT><MEAN_MOTION_DDOT>0</MEAN_MOTION_DDOT></tleParameters></data></segment></body></omm>

</ndm>
