ORBCOMM-X [-]           
1 21576U 91050C   23244.65850645  .00000383  00000+0  12955-3 0  9998
2 21576  98.4295 311.0470 0003841  21.3388 338.7961 14.42155917687745
ORBCOMM FM01 [-]        
1 23545U 95017A   23244.73418675  .00004234  00000+0  62086-3 0  9994
2 23545  69.9664 246.2686 0007698 247.3240 112.7094 14.76251039515527
ORBCOMM FM02 [-]        
1 23546U 95017B   23244.75666239  .00004750  00000+0  70450-3 0  9995
2 23546  69.9683 265.1619 0009125 238.5444 121.4811 14.75666636515188
ORBCOMM FM08 [-]        
1 25112U 97084A   23244.73533376  .00001424  00000+0  48132-3 0  9992
2 25112  45.0147 256.9175 0007719 203.6865 156.3630 14.41158502346821
ORBCOMM FM10 [-]        
1 25113U 97084B   23244.73029485  .00001190  00000+0  40993-3 0  9991
2 25113  45.0159 258.6377 0004389 183.6816 176.4002 14.41104180521971
ORBCOMM FM11 [+]        
1 25114U 97084C   23244.86767833  .00001232  00000+0  42381-3 0  9992
2 25114  45.0143 257.8617 0005118 181.0865 178.9974 14.40994723346968
ORBCOMM FM12 [-]        
1 25115U 97084D   23244.40768498  .00001211  00000+0  41741-3 0  9997
2 25115  45.0149 259.6897 0004229 185.4340 174.6464 14.40990174346696
ORBCOMM FM09 [-]        
1 25116U 97084E   23244.76060761  .00001226  00000+0  42218-3 0  9991
2 25116  45.0155 258.6333 0004653 162.4545 197.6466 14.40971082346954
